[{"OBJECT_NAME":"YAOGAN-30 10A","OBJECT_ID":"2021-055A","EPOCH":"2026-03-09T23:48:28.291104","MEAN_MOTION":15.02193247,"ECCENTRICITY":0.0004983,"INCLINATION":34.9965,"RA_OF_ASC_NODE":36.5937,"ARG_OF_PERICENTER":279.793,"MEAN_ANOMALY":80.2215,"EPHEMERIS_TYPE":0,"CLASSIFICATION_TYPE":"U","NORAD_CAT_ID":48860,"ELEMENT_SET_NO":999,"REV_AT_EPOCH":25825,"BSTAR":0.00036861198,"MEAN_MOTION_DOT":4.929e-5,"MEAN_MOTION_DDOT":0},{"OBJECT_NAME":"STARLINK-30792","OBJECT_ID":"2023-170Q","EPOCH":"2026-03-09T08:39:02.435904","MEAN_MOTION":15.03789183,"ECCENTRICITY":0.00011754,"INCLINATION":42.9983,"RA_OF_ASC_NODE":197.3811,"ARG_OF_PERICENTER":295.0608,"MEAN_ANOMALY":65.0113,"EPHEMERIS_TYPE":0,"CLASSIFICATION_TYPE":"U","NORAD_CAT_ID":58220,"ELEMENT_SET_NO":999,"REV_AT_EPOCH":13023,"BSTAR":0.00051104631,"MEAN_MOTION_DOT":6.939e-5,"MEAN_MOTION_DDOT":0}]
